LEMUR-2-LLOYD           
1 60577U 24149DP  26068.46001441  .00012007  00000+0  80143-3 0  9995
2 60577  97.6780 149.6779 0005186 125.6096 234.5616 15.07168338 85367
STARLINK-34703          
1 65387U 25191J   26068.64258904  .00004923  00000+0  34514-3 0  9994
2 65387  97.6023 301.5004 0002511  76.2496 283.9010 15.05650979 30265
